SEEDS II (CO-66)        
1 32791U 08021J   26068.92109284  .00023758  00000+0  84213-3 0  9995
2 32791  97.7519  62.3611 0001448 359.2618   0.8619 15.29097235972108
STARLINK-32620          
1 61928U 24207S   26068.96170509  .00022578  00000+0  82730-3 0  9996
2 61928  42.9976 280.2017 0001239 177.7922 182.2936 15.27587154 74765
